[{"OBJECT_NAME":"STARLINK-34270","OBJECT_ID":"2025-126M","EPOCH":"2026-03-09T07:15:07.658208","MEAN_MOTION":14.98210646,"ECCENTRICITY":0.00022033,"INCLINATION":70.0042,"RA_OF_ASC_NODE":35.442,"ARG_OF_PERICENTER":302.3611,"MEAN_ANOMALY":57.7335,"EPHEMERIS_TYPE":0,"CLASSIFICATION_TYPE":"U","NORAD_CAT_ID":64355,"ELEMENT_SET_NO":999,"REV_AT_EPOCH":4183,"BSTAR":0.0035760405,"MEAN_MOTION_DOT":0.00042703,"MEAN_MOTION_DDOT":0},{"OBJECT_NAME":"ATLAS 5 CENTAUR R\/B","OBJECT_ID":"2013-072P","EPOCH":"2026-03-09T21:36:10.628064","MEAN_MOTION":14.96443736,"ECCENTRICITY":0.0189428,"INCLINATION":120.4328,"RA_OF_ASC_NODE":111.5185,"ARG_OF_PERICENTER":160.796,"MEAN_ANOMALY":200.0359,"EPHEMERIS_TYPE":0,"CLASSIFICATION_TYPE":"U","NORAD_CAT_ID":39475,"ELEMENT_SET_NO":999,"REV_AT_EPOCH":9970,"BSTAR":0.00054929733,"MEAN_MOTION_DOT":8.701e-5,"MEAN_MOTION_DDOT":0}]
